$$SOE
2461295.500000000, A.D. 2026-Sep-12 00:00:00.0000, 9.992939447459209E+07, 9.572085443902969E+07, 1.279467923870223E+07,
2461302.500000000, A.D. 2026-Sep-19 00:00:00.0000, 7.951338321327971E+07, 1.073553359808772E+08, 1.027090456990620E+07,
2461309.500000000, A.D. 2026-Sep-26 00:00:00.0000, 5.750485106717142E+07, 1.168270949160722E+08, 7.541385407894611E+06,
2461316.500000000, A.D. 2026-Oct-03 00:00:00.0000, 3.424905693939497E+07, 1.237524783878521E+08, 4.648262041646548E+06,
2461323.500000000, A.D. 2026-Oct-10 00:00:00.0000, 1.021578158751355E+07, 1.278599747405947E+08, 1.649597545863450E+06,
2461330.500000000, A.D. 2026-Oct-17 00:00:00.0000, -1.405265127484427E+07, 1.290426590618199E+08, -1.386981726852678E+06,
2461337.500000000, A.D. 2026-Oct-24 00:00:00.0000, -3.801558261025170E+07, 1.273750684157251E+08, -4.393533070043378E+06,
2461344.500000000, A.D. 2026-Oct-31 00:00:00.0000, -6.120412029181821E+07, 1.230877665019946E+08, -7.310652504787080E+06,
2461351.500000000, A.D. 2026-Nov-07 00:00:00.0000, -8.326447004386747E+07, 1.165133104724106E+08, -1.009305914026040E+07,
2461358.500000000, A.D. 2026-Nov-14 00:00:00.0000, -1.039681350831700E+08, 1.080266549237124E+08, -1.271104545225290E+07,
2461365.500000000, A.D. 2026-Nov-21 00:00:00.0000, -1.231974059640761E+08, 9.799764079752010E+07, -1.514879691540322E+07,
2461372.500000000, A.D. 2026-Nov-28 00:00:00.0000, -1.409194947132613E+08, 8.676187403506306E+07, -1.740123562589632E+07,
2461379.500000000, A.D. 2026-Dec-05 00:00:00.0000, -1.571597759909733E+08, 7.460783639353669E+07, -1.947070560926185E+07,
2461386.500000000, A.D. 2026-Dec-12 00:00:00.0000, -1.719794836160583E+08, 6.177489749721846E+07, -2.136418491330213E+07,
2461393.500000000, A.D. 2026-Dec-19 00:00:00.0000, -1.854593024710382E+08, 4.845721395639795E+07, -2.309121901386153E+07,
2461400.500000000, A.D. 2026-Dec-26 00:00:00.0000, -1.976882833762869E+08, 3.481003928372653E+07, -2.466251395640932E+07,
2461407.500000000, A.D. 2027-Jan-02 00:00:00.0000, -2.087568470448770E+08, 2.095645105148499E+07, -2.608904049923643E+07,
2461414.500000000, A.D. 2027-Jan-09 00:00:00.0000, -2.187526557571191E+08, 6.993533818537066E+06, -2.738149906728261E+07,
2461421.500000000, A.D. 2027-Jan-16 00:00:00.0000, -2.277583797621693E+08, -7.002339601460857E+06, -2.855002467739980E+07,
2461428.500000000, A.D. 2027-Jan-23 00:00:00.0000, -2.358506603545588E+08, -2.097117639144791E+07, -2.960404453826721E+07,
2461435.500000000, A.D. 2027-Jan-30 00:00:00.0000, -2.430997982402208E+08, -3.486589272594272E+07, -3.055222904453999E+07,
2461442.500000000, A.D. 2027-Feb-06 00:00:00.0000, -2.495698610839364E+08, -4.864956880537015E+07, -3.140249747595431E+07,
2461449.500000000, A.D. 2027-Feb-13 00:00:00.0000, -2.553190181977868E+08, -6.229329200848869E+07, -3.216205375278740E+07,
2461456.500000000, A.D. 2027-Feb-20 00:00:00.0000, -2.603999866609913E+08, -7.577446754733428E+07, -3.283743698016671E+07,
2461463.500000000, A.D. 2027-Feb-27 00:00:00.0000, -2.648605170509284E+08, -8.907549880801736E+07, -3.343457808271832E+07,
2461470.500000000, A.D. 2027-Mar-06 00:00:00.0000, -2.687438752284698E+08, -1.021827543177745E+08, -3.395885734065122E+07,
2461477.500000000, A.D. 2027-Mar-13 00:00:00.0000, -2.720892996769149E+08, -1.150857554589600E+08, -3.441515954892582E+07,
2461484.500000000, A.D. 2027-Mar-20 00:00:00.0000, -2.749324246348426E+08, -1.277765361461639E+08, -3.480792524626864E+07,
2461491.500000000, A.D. 2027-Mar-27 00:00:00.0000, -2.773056646226988E+08, -1.402491366769604E+08, -3.514119743770523E+07,
2461498.500000000, A.D. 2027-Apr-03 00:00:00.0000, -2.792385598223070E+08, -1.524992022408352E+08, -3.541866370494654E+07,
2461505.500000000, A.D. 2027-Apr-10 00:00:00.0000, -2.807580840162708E+08, -1.645236632659730E+08, -3.564369386256716E+07,
2461512.500000000, A.D. 2027-Apr-17 00:00:00.0000, -2.818889178825482E+08, -1.763204800179665E+08, -3.581937346357507E+07,
2461519.500000000, A.D. 2027-Apr-24 00:00:00.0000, -2.826536908077739E+08, -1.878884378951023E+08, -3.594853353266688E+07,
2461526.500000000, A.D. 2027-May-01 00:00:00.0000, -2.830731942284322E+08, -1.992269828258912E+08, -3.603377693651447E+07,
2461533.500000000, A.D. 2027-May-08 00:00:00.0000, -2.831665693694848E+08, -2.103360877928065E+08, -3.607750173355746E+07,
2461540.500000000, A.D. 2027-May-15 00:00:00.0000, -2.829514738214331E+08, -2.212161430963960E+08, -3.608192164008550E+07,
2461547.500000000, A.D. 2027-May-22 00:00:00.0000, -2.824442311877879E+08, -2.318678679016408E+08, -3.604908400245510E+07,
2461554.500000000, A.D. 2027-May-29 00:00:00.0000, -2.816599628309254E+08, -2.422922405534142E+08, -3.598088599152859E+07,
2461561.500000000, A.D. 2027-Jun-05 00:00:00.0000, -2.806127029374417E+08, -2.524904413735443E+08, -3.587908909892595E+07,
2461568.500000000, A.D. 2027-Jun-12 00:00:00.0000, -2.793155007542337E+08, -2.624638049954923E+08, -3.574533193808782E+07,
2461575.500000000, A.D. 2027-Jun-19 00:00:00.0000, -2.777805119336789E+08, -2.722137811669591E+08, -3.558114159066278E+07,
2461582.500000000, A.D. 2027-Jun-26 00:00:00.0000, -2.760190801086888E+08, -2.817419026784329E+08, -3.538794371559376E+07,
2461589.500000000, A.D. 2027-Jul-03 00:00:00.0000, -2.740418097856771E+08, -2.910497591221321E+08, -3.516707158141068E+07,
2461596.500000000, A.D. 2027-Jul-10 00:00:00.0000, -2.718586315809607E+08, -3.001389754337158E+08, -3.491977415420373E+07,
2461603.500000000, A.D. 2027-Jul-17 00:00:00.0000, -2.694788606878980E+08, -3.090111944136539E+08, -3.464722336060694E+07,
2461610.500000000, A.D. 2027-Jul-24 00:00:00.0000, -2.669112492214196E+08, -3.176680626068273E+08, -3.435052064349993E+07,
2461617.500000000, A.D. 2027-Jul-31 00:00:00.0000, -2.641640327276042E+08, -3.261112187472023E+08, -3.403070291457964E+07,
2461624.500000000, A.D. 2027-Aug-07 00:00:00.0000, -2.612449716681736E+08, -3.343422831596769E+08, -3.368874786603290E+07,
2461631.500000000, A.D. 2027-Aug-14 00:00:00.0000, -2.581613907119123E+08, -3.423628479980973E+08, -3.332557851632421E+07,
2461638.500000000, A.D. 2027-Aug-21 00:00:00.0000, -2.549202156786684E+08, -3.501744713770965E+08, -3.294206737925021E+07,
2461645.500000000, A.D. 2027-Aug-28 00:00:00.0000, -2.515280051124978E+08, -3.577786739432417E+08, -3.253904052326378E+07,
2461652.500000000, A.D. 2027-Sep-04 00:00:00.0000, -2.479909780231431E+08, -3.651769351745355E+08, -3.211728125253399E+07,
2461659.500000000, A.D. 2027-Sep-11 00:00:00.0000, -2.443150395047884E+08, -3.723706898954695E+08, -3.167753337461153E+07,
2461666.500000000, A.D. 2027-Sep-18 00:00:00.0000, -2.405058043741572E+08, -3.793613255130327E+08, -3.122050415429305E+07,
2461673.500000000, A.D. 2027-Sep-25 00:00:00.0000, -2.365686188416269E+08, -3.861501799312452E+08, -3.074686701140174E+07,
2461680.500000000, A.D. 2027-Oct-02 00:00:00.0000, -2.325085803550642E+08, -3.927385400167599E+08, -3.025726399403414E+07,
2461687.500000000, A.D. 2027-Oct-09 00:00:00.0000, -2.283305557843800E+08, -3.991276405357857E+08, -2.975230805337495E+07,
2461694.500000000, A.D. 2027-Oct-16 00:00:00.0000, -2.240391980518785E+08, -4.053186635453154E+08, -2.923258515108877E+07,
2461701.500000000, A.D. 2027-Oct-23 00:00:00.0000, -2.196389610965001E+08, -4.113127381833757E+08, -2.869865624190372E+07,
2461708.500000000, A.D. 2027-Oct-30 00:00:00.0000, -2.151341129277448E+08, -4.171109401974664E+08, -2.815105913231647E+07,
2461715.500000000, A.D. 2027-Nov-06 00:00:00.0000, -2.105287480489091E+08, -4.227142900418637E+08, -2.759031003143433E+07,
2461722.500000000, A.D. 2027-Nov-13 00:00:00.0000, -2.058268013394205E+08, -4.281237515864734E+08, -2.701690479508904E+07,
2461729.500000000, A.D. 2027-Nov-20 00:00:00.0000, -2.010320605891339E+08, -4.333402335961567E+08, -2.643132032022694E+07,
2461736.500000000, A.D. 2027-Nov-27 00:00:00.0000, -1.961481761535197E+08, -4.383645909933074E+08, -2.583401600640348E+07,
2461743.500000000, A.D. 2027-Dec-04 00:00:00.0000, -1.911786698310462E+08, -4.431976249687795E+08, -2.522543503340191E+07,
2461750.500000000, A.D. 2027-Dec-11 00:00:00.0000, -1.861269435823158E+08, -4.478400828860739E+08, -2.460600549146354E+07,
2461757.500000000, A.D. 2027-Dec-18 00:00:00.0000, -1.809962878773260E+08, -4.522926583013803E+08, -2.397614142446223E+07,
2461764.500000000, A.D. 2027-Dec-25 00:00:00.0000, -1.757898895737920E+08, -4.565559910879164E+08, -2.333624380690995E+07,
2461771.500000000, A.D. 2028-Jan-01 00:00:00.0000, -1.705108393348437E+08, -4.606306676389067E+08, -2.268670146359903E+07,
$$EOE